0 TELSTAR 3C R/B(PAM-D)
1 15246U 84093G   22239.71369254  .00000338  00000-0  65656-3 0  9992
2 15246  24.9119 102.6181 7097996  26.4671 356.9273  2.45830266322826
0 COSMOS 1593 (GLONASS)
1 15259U 84095A   22238.66924926  .00000026  00000-0  00000-0 0  9997
2 15259  64.2389 120.6799 0023980 207.7239 351.4993  2.13105670248746
0 COSMOS 1594 (GLONASS)
1 15260U 84095B   22239.49627384  .00000031  00000-0  00000+0 0  9994
2 15260  64.1878 122.2433 0006027 189.9822  10.1931  2.12637234294955
0 COSMOS 1595 (GLONASS)
1 15261U 84095C   22240.21993676  .00000036  00000-0  00000+0 0  9992
2 15261  64.1667 119.1765 0047089 212.3831 336.4283  2.13103517269914
0 SL-12 R/B(2)
1 15264U 84095F   22238.30474175  .00000023  00000-0  00000-0 0  9997
2 15264  64.1930 120.0546 0010664  58.6670 117.6590  2.13046901289981
0 SL-12 R/B(AUX MOTOR)
1 15265U 84095G   22240.15094888  .00022347  00000-0  18947-2 0  9997
2 15265  51.9127 163.0991 4909464  89.7982 324.0862  5.82011644598833
0 SL-12 R/B(AUX MOTOR)
1 15266U 84095H   22240.08324932  .00002226  00000-0  48282-3 0  9996
2 15266  51.9258 163.5913 5494353 304.9281  15.0350  4.80644582627077
0 COSMOS 1596
1 15267U 84096A   22239.88309097 -.00000533  00000-0  00000+0 0  9991
2 15267  65.8802 241.5195 5965327  46.3768 349.8048  2.00401616278182
0 SL-6 R/B(2)
1 15270U 84096D   22239.44499838  .00000467  00000-0  00000-0 0  9996
2 15270  69.2440 132.4696 6087466  26.6944 354.8522  2.04766518283877
0 NAVSTAR 10 (USA 5)
1 15271U 84097A   22237.35930177 -.00000070  00000-0  00000-0 0  9993
2 15271  63.1624 332.5357 0139955 228.4067 167.1457  1.92618673269516
0 ATLAS 14E R/B
1 15272U 84097B   22239.49797801 -.00000007  00000-0  00000-0 0  9996
2 15272  64.5685 301.4160 5391593 322.0312  28.3834  3.90007951540737
0 COSMOS 1598
1 15292U 84100A   22239.81237208  .00000060  00000-0  49083-4 0  9995
2 15292  82.9450 118.0659 0031243 293.8521 121.1279 13.73015235901612
0 SL-8 R/B
1 15293U 84100B   22239.81176350  .00000152  00000-0  14290-3 0  9999
2 15293  82.9367  82.0403 0022463 166.9567 193.2175 13.75147231848137
0 GALAXY 3
1 15308U 84101A   22239.88521490  .00000109  00000-0  00000-0 0  9996
2 15308  14.8511 355.7694 0006230  54.6020 295.5622  0.99833170 32608
0 COSMOS 1579 FUEL CORE
1 15330U 84069D   22239.30928876 -.00000110  00000-0 -16259-4 0  9991
2 15330  65.0536 215.2563 0019365  76.1933  39.8602 13.89869745938857
0 COSMOS 1602
1 15331U 84105A   22240.51854176  .00001700  00000-0  86052-4 0  9991
2 15331  82.5341 262.5308 0013333 196.1097 163.9714 15.16277229 69086
0 SL-14 R/B
1 15332U 84105B   22239.88659189  .00000187  00000-0  19715-4 0  9997
2 15332  82.5340 213.8954 0019765 228.6758 194.5621 14.83634738 26841
0 COSMOS 1603
1 15333U 84106A   22239.95723724  .00000072  00000-0  62666-4 0  9990
2 15333  71.0231  78.2225 0020467 202.8411 157.1803 14.14145700956545
0 SL-12 R/B(2)
1 15334U 84106B   22239.81416345 -.00000283  00000-0 -12133-3 0  9993
2 15334  71.0041  18.7281 0006015 293.1477  66.9012 14.15104309837317
0 SL-12 R/B(AUX MOTOR)
1 15335U 84106C   22240.07171965 -.00000042  00000-0  19586-4 0  9992
2 15335  66.5549   0.5892 0006339 108.8423 293.9798 14.22270427966734
0 SL-12 R/B(AUX MOTOR)
1 15338U 84106F   22240.43371405  .00000132  00000-0  10479-3 0  9996
2 15338  66.5687 252.4156 0016272 216.1702 143.8290 14.18353741961215
0 OPS 4682 DEB
1 15340U 65027R   22239.70586650 -.00000191  00000-0 -67649-3 0  9996
2 15340  90.2655 334.6320 0037067  92.4617  67.3490 12.98036717803199
0 COSMOS 1604
1 15350U 84107A   22239.74741790  .00000225  00000-0  00000+0 0  9999
2 15350  70.2033  63.3670 5826801   9.7907 357.9415  2.00647898277642
0 ERBS
1 15354U 84108B   22240.17663754  .00039964  00000-0  31267-3 0  9991
2 15354  56.9974 162.0615 0010203 121.6135 238.5930 15.71248570 92580
0 SL-6 R/B(2)
1 15355U 84107D   22240.14440680 -.00000058  00000-0  00000+0 0  9999
2 15355  63.9969 274.9671 6518235  43.0471 352.6767  2.03367666281464
0 COSMOS 1605
1 15359U 84109A   22239.84921627  .00000063  00000-0  49723-4 0  9990
2 15359  82.9374 102.2611 0045144 239.0546 132.7522 13.75223130900859
0 SL-8 R/B
1 15360U 84109B   22239.89323740  .00000147  00000-0  13303-3 0  9996
2 15360  82.9362  78.4651 0042078 143.6787 216.7239 13.76806726902440
0 NOVA 3
1 15362U 84110A   22240.56920569  .00000076  00000-0  15978-3 0  9999
2 15362  90.0945  67.6507 0033192  45.9728  13.8194 13.22837832828317
0 COSMOS 1606
1 15369U 84111A   22239.58622044  .00001987  00000-0  92638-4 0  9995
2 15369  82.5252  52.8105 0017404 144.8719 215.3667 15.19163127 68067
0 SL-14 R/B
1 15370U 84111B   22240.48583224  .00000192  00000-0  20190-4 0  9995
2 15370  82.5171  27.6452 0019265 273.7481  86.1531 14.83924393 45653
0 COSMOS 1607
1 15378U 84112A   22240.44031576 -.00000082  00000-0  62863-5 0  9991
2 15378  64.9921  56.4662 0026876  87.3806 273.0330 13.83584769913080
0 ARABSAT 1D (ANIK D2)
1 15383U 84113B   22239.80806575 -.00000075  00000-0  00000-0 0  9997
2 15383  14.6002 351.7333 0023583   4.2409 189.5230  0.98905515101103
0 LEASAT 1
1 15384U 84113C   22239.97418241 -.00000070  00000-0  00000+0 0  9999
2 15384  12.7195 345.9691 0026200 260.9449 111.3065  0.98544586110322
0 SPACENET 2
1 15385U 84114A   22240.44937816 -.00000034  00000-0  00000+0 0  9999
2 15385  14.9405   2.7051 0011363  73.9750 315.9777  0.99752321113111
0 MARECS B2
1 15386U 84114B   22239.83658025 -.00000105  00000-0  00000-0 0  9993
2 15386  15.1317 342.6369 0110904  23.1748 332.9333  0.95928254 99341
0 ANIK D2 R/B(PAM-D)
1 15387U 84113D   22239.50325612 -.00000161  00000-0  31127-3 0  9999
2 15387  25.4354  83.5091 7081557 300.5503   8.3240  2.47978608329950
0 ARIANE 3 R/B
1 15388U 84114C   22239.73742739 -.00000115  00000-0  38348-3 0  9990
2 15388   7.2555  76.7443 6921005 303.1012   8.5186  2.68349723267271
0 LEASAT 1 PKM
1 15390U 84113E   22240.47649118  .00013525  00000-0  72390-3 0  9995
2 15390  27.0725 288.0487 4464022  55.2190 339.1454  6.61933215713910
0 NATO 3D
1 15391U 84115A   22239.89400337 -.00000116  00000-0  00000-0 0  9999
2 15391  14.4283   3.2315 0106627  99.7228 264.4337  0.94954326134690
0 DELTA 1 R/B(1)
1 15392U 84115B   22239.78244267  .00000165  00000-0  18767-4 0  9992
2 15392  21.4900 279.5332 1034199  55.7120 313.6925 12.45634101703013
0 COSMOS 1610
1 15398U 84118A   22240.12137126  .00000033  00000-0  18973-4 0  9999
2 15398  82.9453  79.5960 0033017  48.9641  73.1418 13.73762474894426
0 SL-8 R/B
1 15399U 84118B   22239.69627169  .00000109  00000-0  96415-4 0  9992
2 15399  82.9454  37.7252 0032457 250.8245 120.0698 13.76174561896701
0 DELTA 1 R/B(2)
1 15402U 84115C   22238.89316433 -.00000085  00000-0  28516-3 0  9994
2 15402  23.1184  87.8726 7147114 249.2009  25.3229  2.36069393260453
0 ATLAS AGENA R/B(2)
1 15422U 77038C   22239.05571513 -.00000004  00000-0  00000-0 0  9999
2 15422   8.4053 332.6343 1516648 151.8262 217.3644  1.02334381 12012
0 NOAA 9
1 15427U 84123A   22240.52374117  .00000030  00000-0  38316-4 0  9995
2 15427  99.0518 214.0611 0014294 324.9017 143.1462 14.16217796947043
0 MOLNIYA 1-63
1 15429U 84124A   22238.68718222  .00000921  00000-0  00000-0 0  9995
2 15429  63.7537 161.0899 6646854 259.2527 233.5790  2.00821330276169
0 SL-6 R/B(2)
1 15439U 84124H   22239.89021270  .00001012  00000-0  00000+0 0  9991
2 15439  63.5707 173.4679 6783471 255.9844  25.4609  1.96345932227427
0 USA 7
1 15453U 84129A   22239.37789949  .00000034  00000-0  00000-0 0  9993
2 15453  13.7342 331.9824 0003966 156.2158 231.5096  0.98854809 12316
0 TITAN 34D TRANSTAGE R/B
1 15454U 84129B   22239.21331450 -.00000269  00000-0  00000-0 0  9998
2 15454  12.7157 327.7065 0008145 176.9990 183.0822  1.01159213 11686
0 COSMOS 1617
1 15469U 85003A   22239.19547119  .00000044  00000-0  18575-3 0  9993
2 15469  82.6092 279.1505 0001590 144.0766 276.6207 12.62494033733036
0 COSMOS 1618
1 15470U 85003B   22240.51227625  .00000013  00000-0  15181-4 0  9997
2 15470  82.5990 257.2720 0005507 133.6248  21.6883 12.62987099734321
0 COSMOS 1619
1 15471U 85003C   22239.90790574  .00000013  00000-0  12573-4 0  9999
2 15471  82.6067 212.0235 0019137 337.5714  80.2487 12.66220049738228
0 COSMOS 1620
1 15472U 85003D   22240.44263069  .00000006  00000-0 -25382-4 0  9990
2 15472  82.5995 220.9345 0015964  39.4318  78.4626 12.65057813737140
0 COSMOS 1621
1 15473U 85003E   22239.49862442  .00000010  00000-0 -38269-5 0  9998
2 15473  82.6070 242.8235 0013161  67.2542  54.4478 12.64474286735921
0 COSMOS 1622
1 15474U 85003F   22239.83591264  .00000011  00000-0 -71130-6 0  9994
2 15474  82.6036 250.1574 0010119  93.1436  82.3120 12.63795959735030
0 SL-14 R/B
1 15475U 85003G   22239.92366413 -.00000003  00000-0 -81485-4 0  9995
2 15475  82.6121  32.1574 0038315  70.1759  43.4812 12.55163190723226
0 COSMOS 1624
1 15482U 85006A   22240.41011887  .00000037  00000-0  22978-4 0  9991
2 15482  74.0415 212.0766 0013312  73.1455  41.4481 14.33138080965533
0 SL-8 R/B
1 15483U 85006B   22239.13036528  .00000055  00000-0  27578-4 0  9999
2 15483  74.0451 113.2096 0018940 343.6050 128.9398 14.36490490968620
0 GORIZONT 11
1 15484U 85007A   22239.85933422 -.00000222  00000-0  00000-0 0  9993
2 15484  11.6475 325.7733 0005129 152.7977 252.4594  1.00392574138704
0 SL-12 R/B(2)
1 15487U 85007D   22240.16577378 -.00000147  00000-0  00000+0 0  9991
2 15487  10.3345 321.5489 0014877 253.2382 286.3306  1.03024795141518
0 SL-8 DEB
1 15490U 85006C   22240.06740648  .00000558  00000-0  13638-3 0  9995
2 15490  74.0324 104.5997 0004157 232.5220 127.5565 14.54906896980885
0 SL-8 DEB
1 15491U 85006D   22240.50037576  .00000483  00000-0  14694-3 0  9994
2 15491  74.0415  72.9851 0016212 130.5883 229.6688 14.44654137970382
0 COSMOS 1626
1 15494U 85009A   22239.73196982  .00003585  00000-0  13019-3 0  9996
2 15494  82.4793 146.0265 0000840 185.8182 174.3048 15.27978233 57508
0 SL-14 R/B
1 15495U 85009B   22240.41455874  .00000173  00000-0  17744-4 0  9992
2 15495  82.5241 209.0481 0019885 182.1914 177.9218 14.84068328 31462
